start=new Date('2023-03-04T00:00:00.000Z').valueOf();
sats=[{"SITE":"AFETR","CENTER_NAME":"EARTH","OBJECT_ID":"2022-097G","BSTAR":"0.00318550000000","MEAN_ELEMENT_THEORY":"SGP4","MEAN_MOTION_DOT":"0.00050875","MEAN_MOTION":"15.08911215","ELEMENT_SET_NO":"999","ARG_OF_PERICENTER":"99.7827","SEMIMAJOR_AXIS":"6917.663","NORAD_CAT_ID":"53394","GP_ID":"227403206","EPOCH":"2023-03-03T07:16:01.839648","PERIAPSIS":"538.543","APOAPSIS":"540.512","PERIOD":"95.433","LAUNCH_DATE":"2022-08-10","REF_FRAME":"TEME","EPHEMERIS_TYPE":"0","OBJECT_TYPE":"PAYLOAD","TIME_SYSTEM":"UTC","CLASSIFICATION_TYPE":"U","MEAN_MOTION_DDOT":"0.0000000000000","ECCENTRICITY":"0.00014230","TLE_LINE1":"1 53394U 22097G   23062.30279907  .00050875  00000-0  31855-2 0  9993","INCLINATION":"53.2180","DECAY_DATE":null,"COUNTRY_CODE":"US","MEAN_ANOMALY":"260.3326","RA_OF_ASC_NODE":"22.7018","TLE_LINE2":"2 53394  53.2180  22.7018 0001423  99.7827 260.3326 15.08911215 32399","RCS_SIZE":"LARGE","OBJECT_NAME":"STARLINK-4544","FILE":"3850163","REV_AT_EPOCH":"3239"},{"SITE":"AFETR","OBJECT_ID":"2022-097H","CENTER_NAME":"EARTH","MEAN_MOTION_DOT":"0.00044529","MEAN_ELEMENT_THEORY":"SGP4","BSTAR":"0.00279320000000","MEAN_MOTION":"15.08907143","ELEMENT_SET_NO":"999","ARG_OF_PERICENTER":"90.9151","NORAD_CAT_ID":"53395","SEMIMAJOR_AXIS":"6917.675","EPOCH":"2023-03-03T09:36:26.742528","GP_ID":"227403447","PERIAPSIS":"538.314","APOAPSIS":"540.766","PERIOD":"95.433","LAUNCH_DATE":"2022-08-10","REF_FRAME":"TEME","EPHEMERIS_TYPE":"0","TIME_SYSTEM":"UTC","OBJECT_TYPE":"PAYLOAD","MEAN_MOTION_DDOT":"0.0000000000000","CLASSIFICATION_TYPE":"U","ECCENTRICITY":"0.00017720","DECAY_DATE":null,"TLE_LINE1":"1 53395U 22097H   23062.40030952  .00044529  00000-0  27932-2 0  9990","INCLINATION":"53.2165","COUNTRY_CODE":"US","RA_OF_ASC_NODE":"32.4882","MEAN_ANOMALY":"269.2044","TLE_LINE2":"2 53395  53.2165  32.4882 0001772  90.9151 269.2044 15.08907143 32109","RCS_SIZE":"LARGE","FILE":"3850163","OBJECT_NAME":"STARLINK-4534","REV_AT_EPOCH":"3210"},{"ECCENTRICITY":"0.00019960","TLE_LINE1":"1 53396U 22097J   23062.31934905  .00034688  00000-0  21834-2 0  9992","INCLINATION":"53.2185","DECAY_DATE":null,"CLASSIFICATION_TYPE":"U","MEAN_MOTION_DDOT":"0.0000000000000","OBJECT_TYPE":"PAYLOAD","TIME_SYSTEM":"UTC","REV_AT_EPOCH":"3209","TLE_LINE2":"2 53396  53.2185  32.8586 0001996  96.2796 263.8424 15.08898061 32097","RCS_SIZE":"LARGE","OBJECT_NAME":"STARLINK-4524","FILE":"3850163","COUNTRY_CODE":"US","MEAN_ANOMALY":"263.8424","RA_OF_ASC_NODE":"32.8586","ELEMENT_SET_NO":"999","ARG_OF_PERICENTER":"96.2796","MEAN_MOTION":"15.08898061","CENTER_NAME":"EARTH","OBJECT_ID":"2022-097J","BSTAR":"0.00218340000000","MEAN_ELEMENT_THEORY":"SGP4","MEAN_MOTION_DOT":"0.00034688","SITE":"AFETR","REF_FRAME":"TEME","EPHEMERIS_TYPE":"0","PERIOD":"95.434","APOAPSIS":"540.949","LAUNCH_DATE":"2022-08-10","PERIAPSIS":"538.187","SEMIMAJOR_AXIS":"6917.703","NORAD_CAT_ID":"53396","GP_ID":"227404184","EPOCH":"2023-03-03T07:39:51.757920"},{"MEAN_MOTION_DDOT":"0.0000000000000","CLASSIFICATION_TYPE":"U","TIME_SYSTEM":"UTC","OBJECT_TYPE":"PAYLOAD","ECCENTRICITY":"0.00013920","DECAY_DATE":null,"INCLINATION":"53.2157","TLE_LINE1":"1 53397U 22097K   23062.19790916  .00039026  00000-0  24536-2 0  9994","COUNTRY_CODE":"US","RA_OF_ASC_NODE":"33.4053","MEAN_ANOMALY":"268.9613","REV_AT_EPOCH":"3207","TLE_LINE2":"2 53397  53.2157  33.4053 0001392  91.1538 268.9613 15.08885633 32076","RCS_SIZE":"LARGE","FILE":"3850163","OBJECT_NAME":"STARLINK-4515","OBJECT_ID":"2022-097K","CENTER_NAME":"EARTH","MEAN_MOTION_DOT":"0.00039026","MEAN_ELEMENT_THEORY":"SGP4","BSTAR":"0.00245360000000","SITE":"AFETR","ELEMENT_SET_NO":"999","ARG_OF_PERICENTER":"91.1538","MEAN_MOTION":"15.08885633","PERIAPSIS":"538.643","NORAD_CAT_ID":"53397","SEMIMAJOR_AXIS":"6917.741","EPOCH":"2023-03-03T04:44:59.351424","GP_ID":"227404710","REF_FRAME":"TEME","EPHEMERIS_TYPE":"0","PERIOD":"95.435","APOAPSIS":"540.569","LAUNCH_DATE":"2022-08-10"},{"TLE_LINE1":"1 53398U 22097L   23062.64318816  .00028705  00000-0  18125-2 0  9999","INCLINATION":"53.2176","DECAY_DATE":null,"ECCENTRICITY":"0.00010080","OBJECT_TYPE":"PAYLOAD","TIME_SYSTEM":"UTC","CLASSIFICATION_TYPE":"U","MEAN_MOTION_DDOT":"0.0000000000000","FILE":"3850400","OBJECT_NAME":"STARLINK-4512","TLE_LINE2":"2 53398  53.2176  31.3990 0001008  70.2933 289.8168 15.08877195 32145","RCS_SIZE":"LARGE","REV_AT_EPOCH":"3214","MEAN_ANOMALY":"289.8168","RA_OF_ASC_NODE":"31.3990","COUNTRY_CODE":"US","MEAN_MOTION":"15.08877195","ARG_OF_PERICENTER":"70.2933","ELEMENT_SET_NO":"999","SITE":"AFETR","MEAN_ELEMENT_THEORY":"SGP4","BSTAR":"0.00181250000000","MEAN_MOTION_DOT":"0.00028705","CENTER_NAME":"EARTH","OBJECT_ID":"2022-097L","LAUNCH_DATE":"2022-08-10","PERIOD":"95.435","APOAPSIS":"540.329","EPHEMERIS_TYPE":"0","REF_FRAME":"TEME","GP_ID":"227437443","EPOCH":"2023-03-03T15:26:11.457024","SEMIMAJOR_AXIS":"6917.767","NORAD_CAT_ID":"53398","PERIAPSIS":"538.934"},{"OBJECT_TYPE":"PAYLOAD","TIME_SYSTEM":"UTC","CLASSIFICATION_TYPE":"U","MEAN_MOTION_DDOT":"0.0000000000000","TLE_LINE1":"1 53399U 22097M   23062.32303030  .00014106  00000-0  90173-3 0  9991","INCLINATION":"53.2155","DECAY_DATE":null,"ECCENTRICITY":"0.00013320","MEAN_ANOMALY":"277.5739","RA_OF_ASC_NODE":"32.8422","COUNTRY_CODE":"US","OBJECT_NAME":"STARLINK-4528","FILE":"3850163","RCS_SIZE":"LARGE","TLE_LINE2":"2 53399  53.2155  32.8422 0001332  82.5405 277.5739 15.08875751 32097","REV_AT_EPOCH":"3209","SITE":"AFETR","MEAN_ELEMENT_THEORY":"SGP4","BSTAR":"0.00090173000000","MEAN_MOTION_DOT":"0.00014106","CENTER_NAME":"EARTH","OBJECT_ID":"2022-097M","MEAN_MOTION":"15.08875751","ARG_OF_PERICENTER":"82.5405","ELEMENT_SET_NO":"999","GP_ID":"227403947","EPOCH":"2023-03-03T07:45:09.817920","SEMIMAJOR_AXIS":"6917.771","NORAD_CAT_ID":"53399","PERIAPSIS":"538.715","LAUNCH_DATE":"2022-08-10","APOAPSIS":"540.558","PERIOD":"95.435","EPHEMERIS_TYPE":"0","REF_FRAME":"TEME"},{"COUNTRY_CODE":"US","RA_OF_ASC_NODE":"32.9408","MEAN_ANOMALY":"234.0359","TLE_LINE2":"2 53400  53.2158  32.9408 0000416 126.0672 234.0359 15.08907174 32091","RCS_SIZE":"LARGE","FILE":"3850163","OBJECT_NAME":"STARLINK-4520","REV_AT_EPOCH":"3209","TIME_SYSTEM":"UTC","OBJECT_TYPE":"PAYLOAD","MEAN_MOTION_DDOT":"0.0000000000000","CLASSIFICATION_TYPE":"U","ECCENTRICITY":"0.00004160","DECAY_DATE":null,"TLE_LINE1":"1 53400U 22097N   23062.30094644  .00047317  00000-0  29658-2 0  9999","INCLINATION":"53.2158","NORAD_CAT_ID":"53400","SEMIMAJOR_AXIS":"6917.675","EPOCH":"2023-03-03T07:13:21.772416","GP_ID":"227404684","PERIAPSIS":"539.252","PERIOD":"95.433","APOAPSIS":"539.828","LAUNCH_DATE":"2022-08-10","REF_FRAME":"TEME","EPHEMERIS_TYPE":"0","SITE":"AFETR","OBJECT_ID":"2022-097N","CENTER_NAME":"EARTH","MEAN_MOTION_DOT":"0.00047317","BSTAR":"0.00296580000000","MEAN_ELEMENT_THEORY":"SGP4","MEAN_MOTION":"15.08907174","ELEMENT_SET_NO":"999","ARG_OF_PERICENTER":"126.0672"},{"RA_OF_ASC_NODE":"33.4702","MEAN_ANOMALY":"283.4001","COUNTRY_CODE":"US","REV_AT_EPOCH":"3207","OBJECT_NAME":"STARLINK-4525","FILE":"3850163","RCS_SIZE":"LARGE","TLE_LINE2":"2 53401  53.2158  33.4702 0001283  76.7134 283.4001 15.08879347 32072","MEAN_MOTION_DDOT":"0.0000000000000","CLASSIFICATION_TYPE":"U","TIME_SYSTEM":"UTC","OBJECT_TYPE":"PAYLOAD","DECAY_DATE":null,"INCLINATION":"53.2158","TLE_LINE1":"1 53401U 22097P   23062.18319181  .00016645  00000-0  10603-2 0  9992","ECCENTRICITY":"0.00012830","PERIAPSIS":"538.738","EPOCH":"2023-03-03T04:23:47.772384","GP_ID":"227404211","NORAD_CAT_ID":"53401","SEMIMAJOR_AXIS":"6917.760","EPHEMERIS_TYPE":"0","REF_FRAME":"TEME","LAUNCH_DATE":"2022-08-10","PERIOD":"95.435","APOAPSIS":"540.513","MEAN_MOTION_DOT":"0.00016645","BSTAR":"0.00106030000000","MEAN_ELEMENT_THEORY":"SGP4","OBJECT_ID":"2022-097P","CENTER_NAME":"EARTH","SITE":"AFETR","ARG_OF_PERICENTER":"76.7134","ELEMENT_SET_NO":"999","MEAN_MOTION":"15.08879347"},{"DECAY_DATE":null,"INCLINATION":"53.2193","TLE_LINE1":"1 53402U 22097Q   23062.36350854  .00009834  00000-0  63456-3 0  9992","ECCENTRICITY":"0.00016830","MEAN_MOTION_DDOT":"0.0000000000000","CLASSIFICATION_TYPE":"U","TIME_SYSTEM":"UTC","OBJECT_TYPE":"PAYLOAD","REV_AT_EPOCH":"3210","OBJECT_NAME":"STARLINK-4499","FILE":"3850163","RCS_SIZE":"LARGE","TLE_LINE2":"2 53402  53.2193  32.6519 0001683  84.4778 275.6406 15.08870893 32106","RA_OF_ASC_NODE":"32.6519","MEAN_ANOMALY":"275.6406","COUNTRY_CODE":"US","ARG_OF_PERICENTER":"84.4778","ELEMENT_SET_NO":"999","MEAN_MOTION":"15.08870893","MEAN_MOTION_DOT":"0.00009834","BSTAR":"0.00063456000000","MEAN_ELEMENT_THEORY":"SGP4","OBJECT_ID":"2022-097Q","CENTER_NAME":"EARTH","SITE":"AFETR","EPHEMERIS_TYPE":"0","REF_FRAME":"TEME","LAUNCH_DATE":"2022-08-10","PERIOD":"95.436","APOAPSIS":"540.815","PERIAPSIS":"538.487","EPOCH":"2023-03-03T08:43:27.137856","GP_ID":"227404958","NORAD_CAT_ID":"53402","SEMIMAJOR_AXIS":"6917.786"},{"GP_ID":"227435692","EPOCH":"2023-03-03T15:22:16.436928","SEMIMAJOR_AXIS":"6917.754","NORAD_CAT_ID":"53403","PERIAPSIS":"538.587","LAUNCH_DATE":"2022-08-10","PERIOD":"95.435","APOAPSIS":"540.651","EPHEMERIS_TYPE":"0","REF_FRAME":"TEME","SITE":"AFETR","BSTAR":"0.00133420000000","MEAN_ELEMENT_THEORY":"SGP4","MEAN_MOTION_DOT":"0.00021034","CENTER_NAME":"EARTH","OBJECT_ID":"2022-097R","MEAN_MOTION":"15.08881296","ARG_OF_PERICENTER":"110.0674","ELEMENT_SET_NO":"999","MEAN_ANOMALY":"250.0479","RA_OF_ASC_NODE":"31.4097","COUNTRY_CODE":"US","FILE":"3850400","OBJECT_NAME":"STARLINK-4507","TLE_LINE2":"2 53403  53.2180  31.4097 0001492 110.0674 250.0479 15.08881296 32140","RCS_SIZE":"LARGE","REV_AT_EPOCH":"3214","OBJECT_TYPE":"PAYLOAD","TIME_SYSTEM":"UTC","CLASSIFICATION_TYPE":"U","MEAN_MOTION_DDOT":"0.0000000000000","TLE_LINE1":"1 53403U 22097R   23062.64046802  .00021034  00000-0  13342-2 0  9993","INCLINATION":"53.2180","DECAY_DATE":null,"ECCENTRICITY":"0.00014920"}];
